SL-14 R/B               
1 21423U 91042B   26027.36392118  .00000641  00000+0  78056-4 0  9998
2 21423  82.4910 258.9440 0017624  21.7696 338.4263 14.81789744846955
ERS-1                   
1 21574U 91050A   26027.75496164  .00000614  00000+0  21119-3 0  9990
2 21574  98.7897  44.9606 0031337 325.3766  34.5380 14.39412462809845
ARIANE 40 R/B           
1 21610U 91050F   26027.62582211  .00000572  00000+0  18379-3 0  9993
2 21610  98.2098  81.3864 0003097 176.4329 183.6884 14.42860658813070
INTERCOSMOS 25          
1 21819U 91086A   26027.78851425  .00001948  00000+0  38355-3 0  9990
2 21819  82.6092 334.7250 1486263 205.0671 147.0522 12.11888660491731
SL-8 R/B                
1 21876U 92008B   26027.70251444  .00000084  00000+0  70948-4 0  9990
2 21876  82.9283 298.2661 0033369 248.6605 138.3604 13.75968568703785
SL-8 R/B                
1 21938U 92020B   26027.83350598  .00000197  00000+0  18797-3 0  9995
2 21938  82.9311 184.0883 0029942  53.5350 110.6381 13.75542401695516
USA 81                  
1 21949U 92023A   26027.79181131  .00000373  00000+0  13096-3 0  9993
2 21949  85.0115 155.0208 0002261 112.5388 247.6044 14.32350991 88939
COSMOS 2219             
1 22219U 92076A   26027.63411769 -.00000208  00000+0 -84445-4 0  9994
2 22219  71.0607 103.8986 0020768 264.0753  95.8002 14.14080207712577
SL-16 R/B               
1 22220U 92076B   26027.67195778 -.00000022  00000+0  13080-4 0  9999
2 22220  70.9991 274.7785 0012249 167.7919 222.3938 14.16850371716024
COSMOS 2221             
1 22236U 92080A   26027.77275946  .00003417  00000+0  30188-3 0  9995
2 22236  82.5063 318.2618 0013841 337.2879  22.7728 14.96017110774675
SL-16 R/B               
1 22285U 92093B   26027.60939817 -.00000055  00000+0 -37178-5 0  9994
2 22285  71.0218  90.5081 0004662 337.6636  22.4284 14.15443674707347
COSMOS 2228             
1 22286U 92094A   26027.74898727  .00003622  00000+0  31148-3 0  9995
2 22286  82.5175 276.5110 0019634  80.1365 280.2073 14.96994852769931
